OBJECT_NAME,OBJECT_ID,EPOCH,MEAN_MOTION,ECCENTRICITY,INCLINATION,RA_OF_ASC_NODE,ARG_OF_PERICENTER,MEAN_ANOMALY,EPHEMERIS_TYPE,CLASSIFICATION_TYPE,NORAD_CAT_ID,ELEMENT_SET_NO,REV_AT_EPOCH,BSTAR,MEAN_MOTION_DOT,MEAN_MOTION_DDOT
ONEWEB-0523,2022-138AE,2026-06-17T18:53:07.346112,13.20771432,.0002761,87.9195,274.3209,97.6419,262.5028,0,U,54141,999,17938,.83509E-4,.47E-6,0
ONEWEB-0524,2022-138AF,2026-06-17T18:38:34.930752,13.20771406,.0002622,87.9194,274.3199,115.5862,244.5543,0,U,54142,999,17938,.1142E-3,.59E-6,0
ONEWEB-0525,2022-138AG,2026-06-17T18:25:52.080096,13.19725475,.0001574,87.9177,304.8486,107.9022,252.2282,0,U,54143,999,17690,-.14122E-3,-.44E-6,0
ONEWEB-0526,2022-138AH,2026-06-17T19:13:38.049312,13.19726002,.0001814,87.9180,304.8428,103.0683,257.0652,0,U,54144,999,17688,.9037E-4,.49E-6,0
ONEWEB-0529,2022-138AJ,2026-06-17T19:18:11.232288,13.19724286,.0001668,87.9171,304.8511,103.1671,256.9648,0,U,54145,999,17690,.63391E-4,.38E-6,0
ONEWEB-0531,2022-138AK,2026-06-17T18:19:11.862336,13.20772403,.0002833,87.9193,274.3202,102.9378,257.2072,0,U,54146,999,17938,-.99016E-4,-.27E-6,0
ONEWEB-0535,2022-138AL,2026-06-17T18:16:46.191072,13.19725005,.0002173,87.9179,304.8435,93.8982,266.2399,0,U,54147,999,17691,-.72737E-4,-.16E-6,0
ONEWEB-0536,2022-138AM,2026-06-17T17:59:47.452128,13.20771573,.0002964,87.9183,274.3452,106.3917,253.7542,0,U,54148,999,17937,-.10908E-4,.9E-7,0
ONEWEB-0527,2022-166A,2026-06-17T15:08:21.551136,13.21823184,.0001995,87.9252,243.9092,100.5588,259.5771,0,U,54642,999,17159,.1348E-3,.69E-6,0
ONEWEB-0528,2022-166B,2026-06-17T15:09:34.250688,13.21823976,.0001873,87.9253,243.9113,103.9660,256.1682,0,U,54643,999,17160,.17452E-3,.85E-6,0
ONEWEB-0539,2022-166C,2026-06-17T17:53:05.694720,13.21827226,.000195,87.9260,243.8602,92.5072,267.6285,0,U,54644,999,17161,.669E-6,.13E-6,0
ONEWEB-0540,2022-166D,2026-06-17T18:02:58.627680,13.21827052,.0002033,87.9254,243.8891,95.0567,265.0799,0,U,54645,999,17160,-.3099E-4,0,0
ONEWEB-0542,2022-166E,2026-06-17T18:07:36.816672,13.21827642,.0001989,87.9262,243.8568,90.0752,270.0610,0,U,54646,999,17161,.96958E-4,.53E-6,0
ONEWEB-0545,2022-166F,2026-06-17T17:16:45.946272,13.21819224,.0002016,87.9256,243.8760,83.4623,276.6740,0,U,54647,999,17157,-.13436E-2,-.542E-5,0
ONEWEB-0580,2022-166G,2026-06-17T18:29:24.465120,13.21827539,.0002252,87.9253,243.8655,88.7353,271.4039,0,U,54648,999,17162,.15083E-3,.75E-6,0
ONEWEB-0582,2022-166H,2026-06-17T17:40:59.138112,13.21826709,.0002134,87.9254,243.8647,86.6512,273.4866,0,U,54649,999,17159,-.18519E-4,.5E-7,0
ONEWEB-0583,2022-166J,2026-06-17T17:57:55.501056,13.21827789,.0002052,87.9253,243.8857,95.0892,265.0476,0,U,54650,999,17160,-.57187E-4,-.11E-6,0
ONEWEB-0584,2022-166K,2026-06-17T18:27:00.042336,13.21825518,.0002114,87.9250,243.8671,95.7826,264.3549,0,U,54651,999,17159,.11649E-3,.61E-6,0
ONEWEB-0585,2022-166L,2026-06-17T17:11:55.301856,13.21826824,.0001991,87.9256,243.8648,103.3003,256.8353,0,U,54652,999,17159,-.11552E-3,-.35E-6,0
ONEWEB-0586,2022-166M,2026-06-17T17:31:16.884192,13.21824352,.0001965,87.9255,243.8875,93.4210,266.7149,0,U,54653,999,17159,.10204E-4,.17E-6,0
ONEWEB-0587,2022-166N,2026-06-17T17:45:48.902112,13.21824068,.0002043,87.9265,243.8589,108.8639,251.2716,0,U,54654,999,17175,-.13359E-3,-.42E-6,0
ONEWEB-0589,2022-166P,2026-06-17T17:26:26.322720,13.21824482,.0002372,87.9251,243.8739,77.8314,282.3085,0,U,54655,999,17161,.34554E-4,.27E-6,0
ONEWEB-0590,2022-166Q,2026-06-17T18:02:34.961856,13.21827310,.0002511,87.9262,243.8591,99.5078,260.6340,0,U,54656,999,17160,-.36806E-4,-.2E-7,0
ONEWEB-0591,2022-166R,2026-06-17T18:19:45.038208,13.21826350,.0002141,87.9252,243.8715,98.4868,261.6509,0,U,54657,999,17163,.44272E-4,.31E-6,0
ONEWEB-0592,2022-166S,2026-06-17T18:24:34.193088,13.21839470,.0002145,87.9261,243.8490,100.9289,259.2086,0,U,54658,999,17151,-.57426E-2,-.2359E-4,0
ONEWEB-0593,2022-166T,2026-06-17T17:07:03.175680,13.21824657,.0001922,87.9256,243.8713,95.0391,265.0962,0,U,54659,999,17161,.74583E-4,.44E-6,0
ONEWEB-0594,2022-166U,2026-06-17T17:36:08.406432,13.21827742,.0001924,87.9252,243.8836,102.9221,257.2128,0,U,54660,999,17163,-.95824E-4,-.27E-6,0
ONEWEB-0595,2022-166V,2026-06-17T15:13:12.522144,13.21827524,.0002136,87.9261,243.8839,105.4608,254.6762,0,U,54661,999,17159,.17103E-4,.2E-6,0
ONEWEB-0596,2022-166W,2026-06-17T18:14:53.847744,13.21826779,.0002097,87.9255,243.8703,101.5446,258.5923,0,U,54662,999,17161,-.50478E-4,-.8E-7,0
ONEWEB-0597,2022-166X,2026-06-17T17:48:15.078816,13.21826412,.0001993,87.9253,243.8771,95.1271,265.0090,0,U,54663,999,17161,-.1387E-3,-.44E-6,0
ONEWEB-0600,2022-166Y,2026-06-17T15:32:35.314080,13.21824734,.0001829,87.9252,243.8872,96.6010,263.5332,0,U,54664,999,17157,.10348E-3,.56E-6,0
