ONEWEB-0523             
1 54141U 22138AE  26168.78689058  .00000047  00000+0  83509-4 0  9994
2 54141  87.9195 274.3209 0002761  97.6419 262.5028 13.20771432179388
ONEWEB-0524             
1 54142U 22138AF  26168.77679318  .00000059  00000+0  11420-3 0  9997
2 54142  87.9194 274.3199 0002622 115.5862 244.5543 13.20771406179387
ONEWEB-0525             
1 54143U 22138AG  26168.76796389 -.00000044  00000+0 -14122-3 0  9993
2 54143  87.9177 304.8486 0001574 107.9022 252.2282 13.19725475176909
ONEWEB-0526             
1 54144U 22138AH  26168.80113483  .00000049  00000+0  90370-4 0  9990
2 54144  87.9180 304.8428 0001814 103.0683 257.0652 13.19726002176885
ONEWEB-0529             
1 54145U 22138AJ  26168.80429667  .00000038  00000+0  63391-4 0  9996
2 54145  87.9171 304.8511 0001668 103.1671 256.9648 13.19724286176902
ONEWEB-0531             
1 54146U 22138AK  26168.76333174 -.00000027  00000+0 -99016-4 0  9992
2 54146  87.9193 274.3202 0002833 102.9378 257.2072 13.20772403179387
ONEWEB-0535             
1 54147U 22138AL  26168.76164573 -.00000016  00000+0 -72737-4 0  9997
2 54147  87.9179 304.8435 0002173  93.8982 266.2399 13.19725005176917
ONEWEB-0536             
1 54148U 22138AM  26168.74985477  .00000009  00000+0 -10908-4 0  9993
2 54148  87.9183 274.3452 0002964 106.3917 253.7542 13.20771573179376
ONEWEB-0527             
1 54642U 22166A   26168.63080499  .00000069  00000+0  13480-3 0  9993
2 54642  87.9252 243.9092 0001995 100.5588 259.5771 13.21823184171598
ONEWEB-0528             
1 54643U 22166B   26168.63164642  .00000085  00000+0  17452-3 0  9998
2 54643  87.9253 243.9113 0001873 103.9660 256.1682 13.21823976171602
ONEWEB-0539             
1 54644U 22166C   26168.74520480  .00000013  00000+0  66900-6 0  9993
2 54644  87.9260 243.8602 0001950  92.5072 267.6285 13.21827226171618
ONEWEB-0540             
1 54645U 22166D   26168.75206745  .00000000  00000+0 -30990-4 0  9995
2 54645  87.9254 243.8891 0002033  95.0567 265.0799 13.21827052171600
ONEWEB-0542             
1 54646U 22166E   26168.75528723  .00000053  00000+0  96958-4 0  9992
2 54646  87.9262 243.8568 0001989  90.0752 270.0610 13.21827642171615
ONEWEB-0545             
1 54647U 22166F   26168.71997623 -.00000542  00000+0 -13436-2 0  9991
2 54647  87.9256 243.8760 0002016  83.4623 276.6740 13.21819224171576
ONEWEB-0580             
1 54648U 22166G   26168.77042205  .00000075  00000+0  15083-3 0  9995
2 54648  87.9253 243.8655 0002252  88.7353 271.4039 13.21827539171625
ONEWEB-0582             
1 54649U 22166H   26168.73679558  .00000005  00000+0 -18519-4 0  9991
2 54649  87.9254 243.8647 0002134  86.6512 273.4866 13.21826709171595
ONEWEB-0583             
1 54650U 22166J   26168.74855904 -.00000011  00000+0 -57187-4 0  9997
2 54650  87.9253 243.8857 0002052  95.0892 265.0476 13.21827789171608
ONEWEB-0584             
1 54651U 22166K   26168.76875049  .00000061  00000+0  11649-3 0  9997
2 54651  87.9250 243.8671 0002114  95.7826 264.3549 13.21825518171592
ONEWEB-0585             
1 54652U 22166L   26168.71661229 -.00000035  00000+0 -11552-3 0  9992
2 54652  87.9256 243.8648 0001991 103.3003 256.8353 13.21826824171598
ONEWEB-0586             
1 54653U 22166M   26168.73005653  .00000017  00000+0  10204-4 0  9990
2 54653  87.9255 243.8875 0001965  93.4210 266.7149 13.21824352171597
ONEWEB-0587             
1 54654U 22166N   26168.74014933 -.00000042  00000+0 -13359-3 0  9996
2 54654  87.9265 243.8589 0002043 108.8639 251.2716 13.21824068171756
ONEWEB-0589             
1 54655U 22166P   26168.72669355  .00000027  00000+0  34554-4 0  9991
2 54655  87.9251 243.8739 0002372  77.8314 282.3085 13.21824482171618
ONEWEB-0590             
1 54656U 22166Q   26168.75179354 -.00000002  00000+0 -36806-4 0  9997
2 54656  87.9262 243.8591 0002511  99.5078 260.6340 13.21827310171605
ONEWEB-0591             
1 54657U 22166R   26168.76371572  .00000031  00000+0  44272-4 0  9991
2 54657  87.9252 243.8715 0002141  98.4868 261.6509 13.21826350171631
ONEWEB-0592             
1 54658U 22166S   26168.76706242 -.00002359  00000+0 -57426-2 0  9998
2 54658  87.9261 243.8490 0002145 100.9289 259.2086 13.21839470171519
ONEWEB-0593             
1 54659U 22166T   26168.71323120  .00000044  00000+0  74583-4 0  9996
2 54659  87.9256 243.8713 0001922  95.0391 265.0962 13.21824657171612
ONEWEB-0594             
1 54660U 22166U   26168.73343063 -.00000027  00000+0 -95824-4 0  9992
2 54660  87.9252 243.8836 0001924 102.9221 257.2128 13.21827742171635
ONEWEB-0595             
1 54661U 22166V   26168.63417271  .00000020  00000+0  17103-4 0  9990
2 54661  87.9261 243.8839 0002136 105.4608 254.6762 13.21827524171590
ONEWEB-0596             
1 54662U 22166W   26168.76034546 -.00000008  00000+0 -50478-4 0  9995
2 54662  87.9255 243.8703 0002097 101.5446 258.5923 13.21826779171613
ONEWEB-0597             
1 54663U 22166X   26168.74184119 -.00000044  00000+0 -13870-3 0  9990
2 54663  87.9253 243.8771 0001993  95.1271 265.0090 13.21826412171617
ONEWEB-0600             
1 54664U 22166Y   26168.64763095  .00000056  00000+0  10348-3 0  9994
2 54664  87.9252 243.8872 0001829  96.6010 263.5332 13.21824734171576
